{
  "67501": {
    "noradId": "67501",
    "tle": [
      "1 67501C 26012J   26081.85881944  .00069017  00000+0  24986-2 0   819",
      "2 67501  43.0021 240.0040 0001631 285.4145 164.0121 15.27559201    14"
    ]
  },
  "67502": {
    "noradId": "67502",
    "tle": [
      "1 67502C 26012K   26081.89493056  .00067418  00000+0  24398-2 0   817",
      "2 67502  43.0020 239.7225 0002176 278.1655  45.4322 15.27571673    16"
    ]
  },
  "67503": {
    "noradId": "67503",
    "tle": [
      "1 67503C 26012L   26081.72756944  .00021354  00000+0  77371-3 0   817",
      "2 67503  43.0023 240.6081 0001409 270.6604 232.7022 15.27556669    16"
    ]
  },
  "67504": {
    "noradId": "67504",
    "tle": [
      "1 67504C 26012M   26081.79979167  .00054155  00000+0  19618-2 0   813",
      "2 67504  43.0040 240.1037 0001311 282.4765 301.0140 15.27547328    16"
    ]
  },
  "67505": {
    "noradId": "67505",
    "tle": [
      "1 67505C 26012N   26081.94145833  .00069128  00000+0  25025-2 0   811",
      "2 67505  43.0040 239.2507 0002001 272.7480  31.9796 15.27560279    17"
    ]
  },
  "67506": {
    "noradId": "67506",
    "tle": [
      "1 67506C 26012P   26081.84284722  .00076942  00000+0  27871-2 0   815",
      "2 67506  43.0036 239.7549 0001858 265.6337 237.3968 15.27536456    18"
    ]
  },
  "67507": {
    "noradId": "67507",
    "tle": [
      "1 67507C 26012Q   26081.93451389  .00072352  00000+0  26187-2 0   811",
      "2 67507  43.0029 239.2017 0001866 280.8569  20.9781 15.27564798    10"
    ]
  },
  "67508": {
    "noradId": "67508",
    "tle": [
      "1 67508C 26012R   26081.87687500  .00081652  00000+0  29539-2 0   818",
      "2 67508  43.0026 239.4746 0001330 261.5100 104.2860 15.27577585    14"
    ]
  },
  "67509": {
    "noradId": "67509",
    "tle": [
      "1 67509C 26012S   26081.87965278  .00082747  00000+0  29973-2 0   818",
      "2 67509  43.0007 240.2833 0001479 263.0005 145.5076 15.27534902    19"
    ]
  },
  "67510": {
    "noradId": "67510",
    "tle": [
      "1 67510C 26012T   26081.74631944  .00025271  00000+0  91580-3 0   819",
      "2 67510  43.0017 240.2159 0001477 256.4621 103.4413 15.27548240    19"
    ]
  },
  "67511": {
    "noradId": "67511",
    "tle": [
      "1 67511C 26012U   26081.88451389  .00086263  00000+0  31243-2 0   815",
      "2 67511  43.0013 240.2015 0001568 260.5544 195.9444 15.27536301    13"
    ]
  },
  "67512": {
    "noradId": "67512",
    "tle": [
      "1 67512C 26012V   26081.93243056  .00075308  00000+0  27273-2 0   818",
      "2 67512  43.0015 239.8428 0001577 293.4007  95.1990 15.27544407    10"
    ]
  },
  "67513": {
    "noradId": "67513",
    "tle": [
      "1 67513C 26012W   26081.82201389  .00066769  00000+0  24167-2 0   810",
      "2 67513  43.0023 240.3276 0001498 265.3049 292.0280 15.27567150    14"
    ]
  },
  "67514": {
    "noradId": "67514",
    "tle": [
      "1 67514C 26012X   26081.88034722  .00089537  00000+0  32432-2 0   814",
      "2 67514  43.0020 239.9490 0001734 262.5195 277.1674 15.27532047    16"
    ]
  },
  "67515": {
    "noradId": "67515",
    "tle": [
      "1 67515C 26012Y   26081.71437500  .00012231  00000+0  44328-3 0   813",
      "2 67515  43.0016 240.8374 0001753 260.3649 106.7523 15.27551452    16"
    ]
  },
  "67516": {
    "noradId": "67516",
    "tle": [
      "1 67516C 26012Z   26081.91506944  .00087549  00000+0  31691-2 0   817",
      "2 67516  43.0020 239.5632 0001227 270.6517 177.9159 15.27555265    19"
    ]
  },
  "67517": {
    "noradId": "67517",
    "tle": [
      "1 67517C 26012AA  26081.94631944  .00070250  00000+0  25437-2 0   812",
      "2 67517  43.0020 239.4700 0001836 262.9792 322.3777 15.27552975    17"
    ]
  },
  "67518": {
    "noradId": "67518",
    "tle": [
      "1 67518C 26012AB  26081.89354167  .00081345  00000+0  29460-2 0   813",
      "2 67518  43.0041 239.5334 0001630 262.8314 131.0120 15.27541410    15"
    ]
  },
  "67519": {
    "noradId": "67519",
    "tle": [
      "1 67519C 26012AC  26081.83868056  .00074415  00000+0  26958-2 0   814",
      "2 67519  43.0027 239.7869 0001578 262.9625 210.0599 15.27535481    11"
    ]
  },
  "67520": {
    "noradId": "67520",
    "tle": [
      "1 67520C 26012AD  26081.74701389  .00029288  00000+0  10612-2 0   819",
      "2 67520  43.0035 240.4111 0001737 266.9207  18.9497 15.27551885    16"
    ]
  },
  "67521": {
    "noradId": "67521",
    "tle": [
      "1 67521C 26012AE  26081.86854167  .00077311  00000+0  27979-2 0   810",
      "2 67521  43.0032 239.7785 0002042 285.5556 288.1187 15.27566185    12"
    ]
  },
  "67532": {
    "noradId": "67532",
    "tle": [
      "1 67532C 26014A   26081.73729167 -.00095457  00000+0 -64183-3 0   813",
      "2 67532  97.2842 327.3716 0001103 100.4249 167.1917 15.75220334    16"
    ]
  },
  "67533": {
    "noradId": "67533",
    "tle": [
      "1 67533C 26014B   26081.91437500 -.00186370  00000+0 -12525-2 0   818",
      "2 67533  97.2846 327.4104 0001564  95.9307 117.1742 15.75277748    19"
    ]
  },
  "67534": {
    "noradId": "67534",
    "tle": [
      "1 67534C 26014C   26081.72756944 -.00154250  00000+0 -10376-2 0   818",
      "2 67534  97.2843 327.3029 0000848  94.6496 343.8856 15.75242123    14"
    ]
  },
  "67535": {
    "noradId": "67535",
    "tle": [
      "1 67535C 26014D   26081.91437500 -.00221950  00000+0 -14871-2 0   810",
      "2 67535  97.2847 327.5269 0001469 101.6235  21.3819 15.75365824    18"
    ]
  },
  "67536": {
    "noradId": "67536",
    "tle": [
      "1 67536C 26014E   26081.91437500 -.00300700  00000+0 -20161-2 0   811",
      "2 67536  97.2847 327.4439 0001489  86.7536 204.2943 15.75390770    14"
    ]
  },
  "67537": {
    "noradId": "67537",
    "tle": [
      "1 67537C 26014F   26081.90743056 -.00198310  00000+0 -13324-2 0   812",
      "2 67537  97.2847 327.4214 0001621 101.4385 116.2975 15.75288992    10"
    ]
  },
  "67538": {
    "noradId": "67538",
    "tle": [
      "1 67538C 26014G   26081.72131944  .00009731  00000+0  65100-4 0   817",
      "2 67538  97.2845 327.2178 0001440 101.1124 119.8505 15.75283105    12"
    ]
  },
  "67539": {
    "noradId": "67539",
    "tle": [
      "1 67539C 26014H   26081.87687500 -.00212670  00000+0 -14242-2 0   817",
      "2 67539  97.2849 327.4775 0000649  87.1152 161.3722 15.75373314    11"
    ]
  },
  "67540": {
    "noradId": "67540",
    "tle": [
      "1 67540C 26014J   26081.71298611 -.00105510  00000+0 -70695-3 0   812",
      "2 67540  97.2849 327.2282 0001175  73.9664 145.8074 15.75305302    19"
    ]
  },
  "67541": {
    "noradId": "67541",
    "tle": [
      "1 67541C 26014K   26081.72756944 -.00058280  00000+0 -38990-3 0   815",
      "2 67541  97.2847 327.2631 0001518  76.9393 269.4345 15.75316433    10"
    ]
  },
  "67542": {
    "noradId": "67542",
    "tle": [
      "1 67542C 26014L   26081.87687500 -.00357210  00000+0 -23952-2 0   819",
      "2 67542  97.2848 327.5020 0001262  84.7214 219.7472 15.75417170    11"
    ]
  },
  "67543": {
    "noradId": "67543",
    "tle": [
      "1 67543C 26014M   26081.89284722 -.00334170  00000+0 -22415-2 0   814",
      "2 67543  97.2850 327.4993 0001429  71.7374 279.2620 15.75397610    13"
    ]
  },
  "67544": {
    "noradId": "67544",
    "tle": [
      "1 67544C 26014N   26081.93381944 -.00078229  00000+0 -52445-3 0   811",
      "2 67544  97.2853 327.5277 0001622  88.7529 100.4972 15.75278650    15"
    ]
  },
  "67545": {
    "noradId": "67545",
    "tle": [
      "1 67545C 26014P   26081.95048611 -.00064985  00000+0 -43685-3 0   815",
      "2 67545  97.2849 327.4863 0001238  88.6488  59.1413 15.75209519    15"
    ]
  },
  "67546": {
    "noradId": "67546",
    "tle": [
      "1 67546C 26014Q   26081.95187500 -.00156010  00000+0 -10465-2 0   817",
      "2 67546  97.2855 327.5316 0001434  70.6026 186.9754 15.75304847    11"
    ]
  },
  "67547": {
    "noradId": "67547",
    "tle": [
      "1 67547C 26014R   26081.76993056 -.00166030  00000+0 -11107-2 0   815",
      "2 67547  97.2847 327.3842 0001365  45.0979   1.3245 15.75371848    11"
    ]
  },
  "67548": {
    "noradId": "67548",
    "tle": [
      "1 67548C 26014S   26081.86090278 -.00038410  00000+0 -25860-3 0   813",
      "2 67548  97.2847 327.5336 0001361  97.4550 228.7020 15.75160355    19"
    ]
  },
  "67549": {
    "noradId": "67549",
    "tle": [
      "1 67549C 26014T   26081.82895833 -.00253020  00000+0 -16933-2 0   816",
      "2 67549  97.2849 327.3836 0001479  98.2404 136.6929 15.75408963    17"
    ]
  },
  "67550": {
    "noradId": "67550",
    "tle": [
      "1 67550C 26014U   26081.89770833 -.00184540  00000+0 -12363-2 0   810",
      "2 67550  97.2852 327.4655 0000885  68.4922 220.0896 15.75349974    14"
    ]
  },
  "67551": {
    "noradId": "67551",
    "tle": [
      "1 67551C 26014V   26081.77687500 -.00114090  00000+0 -76673-3 0   814",
      "2 67551  97.2847 327.3443 0001166  86.9378 248.9994 15.75240595    13"
    ]
  },
  "67552": {
    "noradId": "67552",
    "tle": [
      "1 67552C 26014W   26081.94006944 -.00236410  00000+0 -15860-2 0   812",
      "2 67552  97.2853 327.4933 0001494  90.3657  42.2977 15.75344381    13"
    ]
  },
  "67553": {
    "noradId": "67553",
    "tle": [
      "1 67553C 26014X   26081.84909722 -.00261150  00000+0 -17485-2 0   812",
      "2 67553  97.2851 327.4621 0002179 115.2858   9.7638 15.75399284    11"
    ]
  },
  "67554": {
    "noradId": "67554",
    "tle": [
      "1 67554C 26014Y   26081.86715278 -.00207770  00000+0 -13913-2 0   816",
      "2 67554  97.2854 327.4310 0000520 139.9618 331.4507 15.75372925    18"
    ]
  },
  "67555": {
    "noradId": "67555",
    "tle": [
      "1 67555C 26014Z   26081.79770833 -.00251680  00000+0 -16839-2 0   816",
      "2 67555  97.2852 327.3550 0001838 103.6473 326.1968 15.75412102    16"
    ]
  }
}